[
    {
        "Altitude(m)": 605470.7848716152,
        "Argument of Periapsis(deg)": 0.0,
        "Eccentricity": 0.0,
        "Inclination(deg)": 60.0,
        "Latitude(deg)": 27.988189501474025,
        "Longitude(deg)": 152.26298713533996,
        "Mean Anomaly(deg)": 147.2727,
        "RAAN(deg)": 90.0,
        "Satellite Name": "Test1 405",
        "Satellite Number": 405,
        "Semi-Major Axis(m)": 6980739.136638005,
        "Time(s)": 0
    },
    {
        "Altitude(m)": 605395.8226753975,
        "Argument of Periapsis(deg)": 0.00010418945913296404,
        "Eccentricity": 0.0,
        "Inclination(deg)": 60.0,
        "Latitude(deg)": 27.473879727330242,
        "Longitude(deg)": 152.61617399578844,
        "Mean Anomaly(deg)": 147.89280614546186,
        "RAAN(deg)": 89.99957995086027,
        "Satellite Name": "Test1 405",
        "Satellite Number": 405,
        "Semi-Major Axis(m)": 6980739.136638005,
        "Time(s)": 10
    },
    {
        "Altitude(m)": 605322.6631450678,
        "Argument of Periapsis(deg)": 0.0002083789182659281,
        "Eccentricity": 0.0,
        "Inclination(deg)": 60.0,
        "Latitude(deg)": 26.95842416312212,
        "Longitude(deg)": 152.96571265590734,
        "Mean Anomaly(deg)": 148.51291229092362,
        "RAAN(deg)": 89.99915990172052,
        "Satellite Name": "Test1 405",
        "Satellite Number": 405,
        "Semi-Major Axis(m)": 6980739.136638005,
        "Time(s)": 20
    },
    {
        "Altitude(m)": 605251.361955169,
        "Argument of Periapsis(deg)": 0.00031256837739889213,
        "Eccentricity": 0.0,
        "Inclination(deg)": 60.0,
        "Latitude(deg)": 26.441857311100062,
        "Longitude(deg)": 153.31170776550331,
        "Mean Anomaly(deg)": 149.13301843638544,
        "RAAN(deg)": 89.99873985258078,
        "Satellite Name": "Test1 405",
        "Satellite Number": 405,
        "Semi-Major Axis(m)": 6980739.136638005,
        "Time(s)": 30
    },
    {
        "Altitude(m)": 605181.974052311,
        "Argument of Periapsis(deg)": 0.0004167578365318562,
        "Eccentricity": 0.0,
        "Inclination(deg)": 60.0,
        "Latitude(deg)": 25.924212819221257,
        "Longitude(deg)": 153.65426224189463,
        "Mean Anomaly(deg)": 149.75312458184732,
        "RAAN(deg)": 89.99831980344103,
        "Satellite Name": "Test1 405",
        "Satellite Number": 405,
        "Semi-Major Axis(m)": 6980739.136638005,
        "Time(s)": 40
    },
    {
        "Altitude(m)": 605114.5536262161,
        "Argument of Periapsis(deg)": 0.0005209472956648203,
        "Eccentricity": 0.0,
        "Inclination(deg)": 60.0,
        "Latitude(deg)": 25.40552351370534,
        "Longitude(deg)": 153.99347632603414,
        "Mean Anomaly(deg)": 150.37323072730916,
        "RAAN(deg)": 89.9978997543013,
        "Satellite Name": "Test1 405",
        "Satellite Number": 405,
        "Semi-Major Axis(m)": 6980739.136638005,
        "Time(s)": 50
    },
    {
        "Altitude(m)": 605049.1540810991,
        "Argument of Periapsis(deg)": 0.0006251367547977843,
        "Eccentricity": 0.0,
        "Inclination(deg)": 60.0,
        "Latitude(deg)": 24.885821430471037,
        "Longitude(deg)": 154.32944815070766,
        "Mean Anomaly(deg)": 150.99333687277098,
        "RAAN(deg)": 89.99747970516154,
        "Satellite Name": "Test1 405",
        "Satellite Number": 405,
        "Semi-Major Axis(m)": 6980739.136638005,
        "Time(s)": 60
    },
    {
        "Altitude(m)": 604985.8280073792,
        "Argument of Periapsis(deg)": 0.0007293262139307483,
        "Eccentricity": 0.0,
        "Inclination(deg)": 60.0,
        "Latitude(deg)": 24.36513784549618,
        "Longitude(deg)": 154.6622743078749,
        "Mean Anomaly(deg)": 151.6134430182328,
        "RAAN(deg)": 89.9970596560218,
        "Satellite Name": "Test1 405",
        "Satellite Number": 405,
        "Semi-Major Axis(m)": 6980739.136638005,
        "Time(s)": 70
    },
    {
        "Altitude(m)": 604924.6271537859,
        "Argument of Periapsis(deg)": 0.0008335156730637124,
        "Eccentricity": 0.0,
        "Inclination(deg)": 60.0,
        "Latitude(deg)": 23.84350330414031,
        "Longitude(deg)": 154.99204890223177,
        "Mean Anomaly(deg)": 152.23354916369468,
        "RAAN(deg)": 89.99663960688206,
        "Satellite Name": "Test1 405",
        "Satellite Number": 405,
        "Semi-Major Axis(m)": 6980739.136638005,
        "Time(s)": 80
    },
    {
        "Altitude(m)": 604865.6023997802,
        "Argument of Periapsis(deg)": 0.0009377051321966765,
        "Eccentricity": 0.0,
        "Inclination(deg)": 60.0,
        "Latitude(deg)": 23.32094764946409,
        "Longitude(deg)": 155.3188641167005,
        "Mean Anomaly(deg)": 152.85365530915647,
        "RAAN(deg)": 89.99621955774232,
        "Satellite Name": "Test1 405",
        "Satellite Number": 405,
        "Semi-Major Axis(m)": 6980739.136638005,
        "Time(s)": 90
    },
    {
        "Altitude(m)": 604808.8037284141,
        "Argument of Periapsis(deg)": 0.0010418945913296407,
        "Eccentricity": 0.0,
        "Inclination(deg)": 60.0,
        "Latitude(deg)": 22.797500049582908,
        "Longitude(deg)": 155.64281077694534,
        "Mean Anomaly(deg)": 153.4737614546183,
        "RAAN(deg)": 89.99579950860257,
        "Satellite Name": "Test1 405",
        "Satellite Number": 405,
        "Semi-Major Axis(m)": 6980739.136638005,
        "Time(s)": 100
    },
    {
        "Altitude(m)": 604754.280199543,
        "Argument of Periapsis(deg)": 0.0011460840504626045,
        "Eccentricity": 0.0,
        "Inclination(deg)": 60.0,
        "Latitude(deg)": 22.273189024094698,
        "Longitude(deg)": 155.96397740201246,
        "Mean Anomaly(deg)": 154.0938676000801,
        "RAAN(deg)": 89.99537945946282,
        "Satellite Name": "Test1 405",
        "Satellite Number": 405,
        "Semi-Major Axis(m)": 6980739.136638005,
        "Time(s)": 110
    },
    {
        "Altitude(m)": 604702.0799234993,
        "Argument of Periapsis(deg)": 0.0012502735095955685,
        "Eccentricity": 0.0,
        "Inclination(deg)": 60.0,
        "Latitude(deg)": 21.748042469610606,
        "Longitude(deg)": 156.2824507668271,
        "Mean Anomaly(deg)": 154.71397374554192,
        "RAAN(deg)": 89.99495941032309,
        "Satellite Name": "Test1 405",
        "Satellite Number": 405,
        "Semi-Major Axis(m)": 6980739.136638005,
        "Time(s)": 120
    },
    {
        "Altitude(m)": 604652.2500351627,
        "Argument of Periapsis(deg)": 0.0013544629687285324,
        "Eccentricity": 0.0,
        "Inclination(deg)": 60.0,
        "Latitude(deg)": 21.22208768442624,
        "Longitude(deg)": 156.59831646366078,
        "Mean Anomaly(deg)": 155.33407989100377,
        "RAAN(deg)": 89.99453936118334,
        "Satellite Name": "Test1 405",
        "Satellite Number": 405,
        "Semi-Major Axis(m)": 6980739.136638005,
        "Time(s)": 130
    },
    {
        "Altitude(m)": 604604.8366684775,
        "Argument of Periapsis(deg)": 0.0014586524278614966,
        "Eccentricity": 0.0,
        "Inclination(deg)": 60.0,
        "Latitude(deg)": 20.6953513923692,
        "Longitude(deg)": 156.9116579496886,
        "Mean Anomaly(deg)": 155.95418603646564,
        "RAAN(deg)": 89.9941193120436,
        "Satellite Name": "Test1 405",
        "Satellite Number": 405,
        "Semi-Major Axis(m)": 6980739.136638005,
        "Time(s)": 140
    },
    {
        "Altitude(m)": 604559.8849314442,
        "Argument of Periapsis(deg)": 0.0015628418869944607,
        "Eccentricity": 0.0,
        "Inclination(deg)": 60.0,
        "Latitude(deg)": 20.167859765849503,
        "Longitude(deg)": 157.22255710638345,
        "Mean Anomaly(deg)": 156.57429218192746,
        "RAAN(deg)": 89.99369926290386,
        "Satellite Name": "Test1 405",
        "Satellite Number": 405,
        "Semi-Major Axis(m)": 6980739.136638005,
        "Time(s)": 150
    },
    {
        "Altitude(m)": 604517.4388815605,
        "Argument of Periapsis(deg)": 0.0016670313461274247,
        "Eccentricity": 0.0,
        "Inclination(deg)": 60.0,
        "Latitude(deg)": 19.63963844814809,
        "Longitude(deg)": 157.53109479787437,
        "Mean Anomaly(deg)": 157.19439832738928,
        "RAAN(deg)": 89.99327921376411,
        "Satellite Name": "Test1 405",
        "Satellite Number": 405,
        "Semi-Major Axis(m)": 6980739.136638005,
        "Time(s)": 160
    },
    {
        "Altitude(m)": 604477.5415017585,
        "Argument of Periapsis(deg)": 0.0017712208052603888,
        "Eccentricity": 0.0,
        "Inclination(deg)": 60.0,
        "Latitude(deg)": 19.110712574976223,
        "Longitude(deg)": 157.83734991540223,
        "Mean Anomaly(deg)": 157.81450447285113,
        "RAAN(deg)": 89.99285916462438,
        "Satellite Name": "Test1 405",
        "Satellite Number": 405,
        "Semi-Major Axis(m)": 6980739.136638005,
        "Time(s)": 170
    },
    {
        "Altitude(m)": 604440.2346768283,
        "Argument of Periapsis(deg)": 0.001875410264393353,
        "Eccentricity": 0.0,
        "Inclination(deg)": 60.0,
        "Latitude(deg)": 18.5811067953306,
        "Longitude(deg)": 158.14139993362926,
        "Mean Anomaly(deg)": 158.43461061831295,
        "RAAN(deg)": 89.99243911548463,
        "Satellite Name": "Test1 405",
        "Satellite Number": 405,
        "Semi-Major Axis(m)": 6980739.136638005,
        "Time(s)": 180
    },
    {
        "Altitude(m)": 604405.5591703749,
        "Argument of Periapsis(deg)": 0.0019795997235263173,
        "Eccentricity": 0.0,
        "Inclination(deg)": 60.0,
        "Latitude(deg)": 18.050845291675557,
        "Longitude(deg)": 158.44332146594223,
        "Mean Anomaly(deg)": 159.05471676377476,
        "RAAN(deg)": 89.9920190663449,
        "Satellite Name": "Test1 405",
        "Satellite Number": 405,
        "Semi-Major Axis(m)": 6980739.136638005,
        "Time(s)": 190
    }
]